{"type": "FeatureCollection", "features": [ {"type": "Feature", "properties": {"norad_id": 66603, "name": "STARLINK-36048", "group": "last-30-days", "lat": -0.1341876084511999, "lon": 144.9962551359903, "alt_km": 443.46568943577495, "timestamp": "2025-12-20T22:39:09.405801+00:00", "meta": {"OBJECT_NAME": "STARLINK-36048", "OBJECT_ID": "2025-270R", "EPOCH": "2025-12-20T00:00:02.000160", "MEAN_MOTION": 15.40687375, "ECCENTRICITY": 0.0001591, "INCLINATION": 42.9996, "RA_OF_ASC_NODE": 150.5807, "ARG_OF_PERICENTER": 274.8987, "MEAN_ANOMALY": 243.6785, "EPHEMERIS_TYPE": 0, "CLASSIFICATION_TYPE": "U", "NORAD_CAT_ID": 66603, "ELEMENT_SET_NO": 999, "REV_AT_EPOCH": 546, "BSTAR": 0.00083486, "MEAN_MOTION_DOT": 0.00034715, "MEAN_MOTION_DDOT": 0}, "tle": {"line1": "1 66603U 25270R   25354.00002315  .00034715  00000+0  83486-3 0  9998", "line2": "2 66603  42.9996 150.5807 0001591 274.8987 243.6785 15.40687375  5465"}}, "geometry": {"type": "Point", "coordinates": [144.9962551359903, -0.1341876084511999]}}, {"type": "Feature", "properties": {"norad_id": 66604, "name": "STARLINK-35977", "group": "last-30-days", "lat": 16.49984503740233, "lon": 163.61641091754362, "alt_km": 441.98348667242226, "timestamp": "2025-12-20T22:39:09.405812+00:00", "meta": {"OBJECT_NAME": "STARLINK-35977", "OBJECT_ID": "2025-270S", "EPOCH": "2025-12-20T14:00:03.000384", "MEAN_MOTION": 15.4070048, "ECCENTRICITY": 0.00019292, "INCLINATION": 42.9999, "RA_OF_ASC_NODE": 147.1599, "ARG_OF_PERICENTER": 267.592, "MEAN_ANOMALY": 275.2378, "EPHEMERIS_TYPE": 0, "CLASSIFICATION_TYPE": "U", "NORAD_CAT_ID": 66604, "ELEMENT_SET_NO": 999, "REV_AT_EPOCH": 566, "BSTAR": -2.1257601e-05, "MEAN_MOTION_DOT": -1.192e-05, "MEAN_MOTION_DDOT": 0}, "tle": {"line1": "1 66604U 25270S   25354.58336806 -.00001192  00000+0 -21258-4 0  9992", "line2": "2 66604  42.9999 147.1599 0001929 267.5920 275.2378 15.40700480  5664"}}, "geometry": {"type": "Point", "coordinates": [163.61641091754362, 16.49984503740233]}}, {"type": "Feature", "properties": {"norad_id": 66605, "name": "STARLINK-36052", "group": "last-30-days", "lat": 42.292651518738595, "lon": -112.58295253220466, "alt_km": 438.8074326663118, "timestamp": "2025-12-20T22:39:09.405822+00:00", "meta": {"OBJECT_NAME": "STARLINK-36052", "OBJECT_ID": "2025-270T", "EPOCH": "2025-12-20T14:00:03.000384", "MEAN_MOTION": 15.40684358, "ECCENTRICITY": 0.00021187, "INCLINATION": 42.9998, "RA_OF_ASC_NODE": 146.9769, "ARG_OF_PERICENTER": 276.3931, "MEAN_ANOMALY": 340.9934, "EPHEMERIS_TYPE": 0, "CLASSIFICATION_TYPE": "U", "NORAD_CAT_ID": 66605, "ELEMENT_SET_NO": 999, "REV_AT_EPOCH": 566, "BSTAR": 9.5186773e-05, "MEAN_MOTION_DOT": 3.672e-05, "MEAN_MOTION_DDOT": 0}, "tle": {"line1": "1 66605U 25270T   25354.58336806  .00003672  00000+0  95187-4 0  9998", "line2": "2 66605  42.9998 146.9769 0002118 276.3931 340.9934 15.40684358  5664"}}, "geometry": {"type": "Point", "coordinates": [-112.58295253220466, 42.292651518738595]}}, {"type": "Feature", "properties": {"norad_id": 66606, "name": "STARLINK-36063", "group": "last-30-days", "lat": -10.544921092126827, "lon": -23.813743273070816, "alt_km": 415.5549904385289, "timestamp": "2025-12-20T22:39:09.405832+00:00", "meta": {"OBJECT_NAME": "STARLINK-36063", "OBJECT_ID": "2025-270U", "EPOCH": "2025-12-19T11:48:20.511648", "MEAN_MOTION": 15.50662232, "ECCENTRICITY": 0.0001816, "INCLINATION": 42.9987, "RA_OF_ASC_NODE": 153.1595, "ARG_OF_PERICENTER": 282.0515, "MEAN_ANOMALY": 78.0141, "EPHEMERIS_TYPE": 0, "CLASSIFICATION_TYPE": "U", "NORAD_CAT_ID": 66606, "ELEMENT_SET_NO": 999, "REV_AT_EPOCH": 539, "BSTAR": 0.00079676, "MEAN_MOTION_DOT": 0.0004682, "MEAN_MOTION_DDOT": 0}, "tle": {"line1": "1 66606U 25270U   25353.49190407  .00046820  00000+0  79676-3 0  9999", "line2": "2 66606  42.9987 153.1595 0001816 282.0515  78.0141 15.50662232  5393"}}, "geometry": {"type": "Point", "coordinates": [-23.813743273070816, -10.544921092126827]}}, {"type": "Feature", "properties": {"norad_id": 66607, "name": "STARLINK-35993", "group": "last-30-days", "lat": 39.31218699972774, "lon": -96.62011901579449, "alt_km": 438.9405334395042, "timestamp": "2025-12-20T22:39:09.405842+00:00", "meta": {"OBJECT_NAME": "STARLINK-35993", "OBJECT_ID": "2025-270V", "EPOCH": "2025-12-20T14:00:03.000384", "MEAN_MOTION": 15.40677791, "ECCENTRICITY": 0.00017471, "INCLINATION": 42.9995, "RA_OF_ASC_NODE": 146.9488, "ARG_OF_PERICENTER": 267.8277, "MEAN_ANOMALY": 2.0009, "EPHEMERIS_TYPE": 0, "CLASSIFICATION_TYPE": "U", "NORAD_CAT_ID": 66607, "ELEMENT_SET_NO": 999, "REV_AT_EPOCH": 556, "BSTAR": 0.00021369006, "MEAN_MOTION_DOT": 8.626e-05, "MEAN_MOTION_DDOT": 0}, "tle": {"line1": "1 66607U 25270V   25354.58336806  .00008626  00000+0  21369-3 0  9994", "line2": "2 66607  42.9995 146.9488 0001747 267.8277   2.0009 15.40677791  5567"}}, "geometry": {"type": "Point", "coordinates": [-96.62011901579449, 39.31218699972774]}}, {"type": "Feature", "properties": {"norad_id": 66608, "name": "STARLINK-36036", "group": "last-30-days", "lat": -11.629327105138268, "lon": -22.582442314449647, "alt_km": 415.3746853888588, "timestamp": "2025-12-20T22:39:09.405851+00:00", "meta": {"OBJECT_NAME": "STARLINK-36036", "OBJECT_ID": "2025-270W", "EPOCH": "2025-12-19T11:47:53.026080", "MEAN_MOTION": 15.50612484, "ECCENTRICITY": 0.0001538, "INCLINATION": 42.999, "RA_OF_ASC_NODE": 153.1562, "ARG_OF_PERICENTER": 266.4602, "MEAN_ANOMALY": 93.6082, "EPHEMERIS_TYPE": 0, "CLASSIFICATION_TYPE": "U", "NORAD_CAT_ID": 66608, "ELEMENT_SET_NO": 999, "REV_AT_EPOCH": 523, "BSTAR": 0.0010303, "MEAN_MOTION_DOT": 0.00060643, "MEAN_MOTION_DDOT": 0}, "tle": {"line1": "1 66608U 25270W   25353.49158595  .00060643  00000+0  10303-2 0  9993", "line2": "2 66608  42.9990 153.1562 0001538 266.4602  93.6082 15.50612484  5231"}}, "geometry": {"type": "Point", "coordinates": [-22.582442314449647, -11.629327105138268]}}, {"type": "Feature", "properties": {"norad_id": 66609, "name": "STARLINK-36034", "group": "last-30-days", "lat": -12.683566770896974, "lon": -21.36563682869989, "alt_km": 414.9309064254603, "timestamp": "2025-12-20T22:39:09.405860+00:00", "meta": {"OBJECT_NAME": "STARLINK-36034", "OBJECT_ID": "2025-270X", "EPOCH": "2025-12-20T10:58:45.230880", "MEAN_MOTION": 15.50720064, "ECCENTRICITY": 0.00016802, "INCLINATION": 42.9983, "RA_OF_ASC_NODE": 147.5039, "ARG_OF_PERICENTER": 247.2, "MEAN_ANOMALY": 112.8683, "EPHEMERIS_TYPE": 0, "CLASSIFICATION_TYPE": "U", "NORAD_CAT_ID": 66609, "ELEMENT_SET_NO": 999, "REV_AT_EPOCH": 538, "BSTAR": 0.001488592, "MEAN_MOTION_DOT": 0.00088424, "MEAN_MOTION_DDOT": 0}, "tle": {"line1": "1 66609U 25270X   25354.45746795  .00088424  00000+0  14886-2 0  9993", "line2": "2 66609  42.9983 147.5039 0001680 247.2000 112.8683 15.50720064  5388"}}, "geometry": {"type": "Point", "coordinates": [-21.36563682869989, -12.683566770896974]}}, {"type": "Feature", "properties": {"norad_id": 66610, "name": "STARLINK-35680", "group": "last-30-days", "lat": 27.917401232178157, "lon": -69.84419882991531, "alt_km": 440.88071714522357, "timestamp": "2025-12-20T22:39:09.405869+00:00", "meta": {"OBJECT_NAME": "STARLINK-35680", "OBJECT_ID": "2025-270Y", "EPOCH": "2025-12-20T14:00:03.000384", "MEAN_MOTION": 15.40670406, "ECCENTRICITY": 0.00020381, "INCLINATION": 42.9994, "RA_OF_ASC_NODE": 146.8878, "ARG_OF_PERICENTER": 284.1662, "MEAN_ANOMALY": 10.5997, "EPHEMERIS_TYPE": 0, "CLASSIFICATION_TYPE": "U", "NORAD_CAT_ID": 66610, "ELEMENT_SET_NO": 999, "REV_AT_EPOCH": 576, "BSTAR": 0.00020764305, "MEAN_MOTION_DOT": 8.371e-05, "MEAN_MOTION_DDOT": 0}, "tle": {"line1": "1 66610U 25270Y   25354.58336806  .00008371  00000+0  20764-3 0  9993", "line2": "2 66610  42.9994 146.8878 0002038 284.1662  10.5997 15.40670406  5764"}}, "geometry": {"type": "Point", "coordinates": [-69.84419882991531, 27.917401232178157]}}, {"type": "Feature", "properties": {"norad_id": 66611, "name": "STARLINK-35583", "group": "last-30-days", "lat": 12.39261663984013, "lon": -48.88931342927155, "alt_km": 442.62452299361667, "timestamp": "2025-12-20T22:39:09.405878+00:00", "meta": {"OBJECT_NAME": "STARLINK-35583", "OBJECT_ID": "2025-270Z", "EPOCH": "2025-12-20T14:00:03.000384", "MEAN_MOTION": 15.42036633, "ECCENTRICITY": 9.91e-05, "INCLINATION": 42.9995, "RA_OF_ASC_NODE": 146.8294, "ARG_OF_PERICENTER": 279.423, "MEAN_ANOMALY": 39.4987, "EPHEMERIS_TYPE": 0, "CLASSIFICATION_TYPE": "U", "NORAD_CAT_ID": 66611, "ELEMENT_SET_NO": 999, "REV_AT_EPOCH": 576, "BSTAR": -0.04590531, "MEAN_MOTION_DOT": -0.01806992, "MEAN_MOTION_DDOT": 0}, "tle": {"line1": "1 66611U 25270Z   25354.58336806 -.01806992  00000+0 -45905-1 0  9994", "line2": "2 66611  42.9995 146.8294 0000991 279.4230  39.4987 15.42036633  5761"}}, "geometry": {"type": "Point", "coordinates": [-48.88931342927155, 12.39261663984013]}}, {"type": "Feature", "properties": {"norad_id": 66612, "name": "STARLINK-36039", "group": "last-30-days", "lat": -42.9151227345609, "lon": 59.21420759593493, "alt_km": 446.4758470990646, "timestamp": "2025-12-20T22:39:09.405887+00:00", "meta": {"OBJECT_NAME": "STARLINK-36039", "OBJECT_ID": "2025-270AA", "EPOCH": "2025-12-20T10:34:58.712448", "MEAN_MOTION": 15.40726185, "ECCENTRICITY": 0.00016577, "INCLINATION": 43.0005, "RA_OF_ASC_NODE": 148.2468, "ARG_OF_PERICENTER": 221.4551, "MEAN_ANOMALY": 138.618, "EPHEMERIS_TYPE": 0, "CLASSIFICATION_TYPE": "U", "NORAD_CAT_ID": 66612, "ELEMENT_SET_NO": 999, "REV_AT_EPOCH": 553, "BSTAR": 0.00084609538, "MEAN_MOTION_DOT": 0.00035234, "MEAN_MOTION_DDOT": 0}, "tle": {"line1": "1 66612U 25270AA  25354.44095732  .00035234  00000+0  84610-3 0  9998", "line2": "2 66612  43.0005 148.2468 0001657 221.4551 138.6180 15.40726185  5536"}}, "geometry": {"type": "Point", "coordinates": [59.21420759593493, -42.9151227345609]}}]}